{
  "type": "FeatureCollection",
  "features": [
    {
      "type": "Feature",
      "properties": {
        "norad_id": 33860,
        "name": "IRIDIUM 33 DEB",
        "group": "iridium-33-debris",
        "lat": 42.653719524500865,
        "lon": 32.849216465523234,
        "alt_km": 661.2625959469533,
        "timestamp": "2025-12-07T14:37:05.588576+00:00",
        "meta_object_name": "IRIDIUM 33 DEB",
        "meta_object_id": "1997-051AD",
        "meta_epoch": "2025-12-06T21:13:29.814240",
        "meta_mean_motion": 14.67255525,
        "meta_eccentricity": 0.00082345,
        "meta_inclination": 86.3839,
        "meta_ra_of_asc_node": 29.8298,
        "meta_arg_of_pericenter": 17.2013,
        "meta_mean_anomaly": 160.0109,
        "meta_ephemeris_type": 0,
        "meta_classification_type": "U",
        "meta_norad_cat_id": 33860,
        "meta_element_set_no": 999,
        "meta_rev_at_epoch": 88636,
        "meta_bstar": 0.0021693873,
        "meta_mean_motion_dot": 0.00012261,
        "meta_mean_motion_ddot": 0,
        "tle_line1": "1 33860U 97051AD  25340.88437285  .00012261  00000+0  21694-2 0  9996",
        "tle_line2": "2 33860  86.3839  29.8298 0008234  17.2013 160.0109 14.67255525886368"
      },
      "geometry": {
        "type": "Point",
        "coordinates": [
          32.849216465523234,
          42.653719524500865
        ]
      }
    },
    {
      "type": "Feature",
      "properties": {
        "norad_id": 33862,
        "name": "IRIDIUM 33 DEB",
        "group": "iridium-33-debris",
        "lat": 38.83269574138746,
        "lon": 42.690187203415725,
        "alt_km": 634.4581628276383,
        "timestamp": "2025-12-07T14:37:05.588587+00:00",
        "meta_object_name": "IRIDIUM 33 DEB",
        "meta_object_id": "1997-051AF",
        "meta_epoch": "2025-12-06T22:52:44.288832",
        "meta_mean_motion": 14.69335158,
        "meta_eccentricity": 0.00538301,
        "meta_inclination": 86.4092,
        "meta_ra_of_asc_node": 40.0818,
        "meta_arg_of_pericenter": 88.4884,
        "meta_mean_anomaly": 84.2838,
        "meta_ephemeris_type": 0,
        "meta_classification_type": "U",
        "meta_norad_cat_id": 33862,
        "meta_element_set_no": 999,
        "meta_rev_at_epoch": 88738,
        "meta_bstar": 0.0022450657,
        "meta_mean_motion_dot": 0.00013592,
        "meta_mean_motion_ddot": 0,
        "tle_line1": "1 33862U 97051AF  25340.95329038  .00013592  00000+0  22451-2 0  9992",
        "tle_line2": "2 33862  86.4092  40.0818 0053830  88.4884  84.2838 14.69335158887385"
      },
      "geometry": {
        "type": "Point",
        "coordinates": [
          42.690187203415725,
          38.83269574138746
        ]
      }
    },
    {
      "type": "Feature",
      "properties": {
        "norad_id": 33866,
        "name": "IRIDIUM 33 DEB",
        "group": "iridium-33-debris",
        "lat": -19.491095239121197,
        "lon": -83.48143406176605,
        "alt_km": 736.5969851769823,
        "timestamp": "2025-12-07T14:37:05.588598+00:00",
        "meta_object_name": "IRIDIUM 33 DEB",
        "meta_object_id": "1997-051AK",
        "meta_epoch": "2025-12-06T18:05:03.511968",
        "meta_mean_motion": 14.25243122,
        "meta_eccentricity": 0.01139909,
        "meta_inclination": 86.3006,
        "meta_ra_of_asc_node": 95.5683,
        "meta_arg_of_pericenter": 180.4799,
        "meta_mean_anomaly": 311.3264,
        "meta_ephemeris_type": 0,
        "meta_classification_type": "U",
        "meta_norad_cat_id": 33866,
        "meta_element_set_no": 999,
        "meta_rev_at_epoch": 86725,
        "meta_bstar": 0.001308936,
        "meta_mean_motion_dot": 3.312e-05,
        "meta_mean_motion_ddot": 0,
        "tle_line1": "1 33866U 97051AK  25340.75351287  .00003312  00000+0  13089-2 0  9991",
        "tle_line2": "2 33866  86.3006  95.5683 0113990 180.4799 311.3264 14.25243122867252"
      },
      "geometry": {
        "type": "Point",
        "coordinates": [
          -83.48143406176605,
          -19.491095239121197
        ]
      }
    },
    {
      "type": "Feature",
      "properties": {
        "norad_id": 33867,
        "name": "IRIDIUM 33 DEB",
        "group": "iridium-33-debris",
        "lat": -30.078594331331413,
        "lon": 174.86526826272996,
        "alt_km": 399.50423919331297,
        "timestamp": "2025-12-07T14:37:05.588609+00:00",
        "meta_object_name": "IRIDIUM 33 DEB",
        "meta_object_id": "1997-051AL",
        "meta_epoch": "2025-12-06T13:04:06.627360",
        "meta_mean_motion": 15.58002769,
        "meta_eccentricity": 0.00124504,
        "meta_inclination": 86.3617,
        "meta_ra_of_asc_node": 353.2987,
        "meta_arg_of_pericenter": 93.4662,
        "meta_mean_anomaly": 266.8026,
        "meta_ephemeris_type": 0,
        "meta_classification_type": "U",
        "meta_norad_cat_id": 33867,
        "meta_element_set_no": 999,
        "meta_rev_at_epoch": 89414,
        "meta_bstar": 0.0092198689,
        "meta_mean_motion_dot": 0.00758101,
        "meta_mean_motion_ddot": 0,
        "tle_line1": "1 33867U 97051AL  25340.54452115  .00758101  00000+0  92199-2 0  9993",
        "tle_line2": "2 33867  86.3617 353.2987 0012450  93.4662 266.8026 15.58002769894148"
      },
      "geometry": {
        "type": "Point",
        "coordinates": [
          174.86526826272996,
          -30.078594331331413
        ]
      }
    },
    {
      "type": "Feature",
      "properties": {
        "norad_id": 33870,
        "name": "IRIDIUM 33 DEB",
        "group": "iridium-33-debris",
        "lat": -80.69914204683369,
        "lon": 37.68870934382146,
        "alt_km": 745.1170647399249,
        "timestamp": "2025-12-07T14:37:05.588620+00:00",
        "meta_object_name": "IRIDIUM 33 DEB",
        "meta_object_id": "1997-051AP",
        "meta_epoch": "2025-12-06T17:58:19.083072",
        "meta_mean_motion": 14.45801384,
        "meta_eccentricity": 0.00208292,
        "meta_inclination": 86.3753,
        "meta_ra_of_asc_node": 60.8287,
        "meta_arg_of_pericenter": 197.8874,
        "meta_mean_anomaly": 285.7545,
        "meta_ephemeris_type": 0,
        "meta_classification_type": "U",
        "meta_norad_cat_id": 33870,
        "meta_element_set_no": 999,
        "meta_rev_at_epoch": 88050,
        "meta_bstar": 0.0014601721,
        "meta_mean_motion_dot": 5.211e-05,
        "meta_mean_motion_ddot": 0,
        "tle_line1": "1 33870U 97051AP  25340.74883198  .00005211  00000+0  14602-2 0  9998",
        "tle_line2": "2 33870  86.3753  60.8287 0020829 197.8874 285.7545 14.45801384880506"
      },
      "geometry": {
        "type": "Point",
        "coordinates": [
          37.68870934382146,
          -80.69914204683369
        ]
      }
    },
    {
      "type": "Feature",
      "properties": {
        "norad_id": 33881,
        "name": "IRIDIUM 33 DEB",
        "group": "iridium-33-debris",
        "lat": -49.486837302609025,
        "lon": 104.73108567142941,
        "alt_km": 732.6877277877538,
        "timestamp": "2025-12-07T14:37:05.588630+00:00",
        "meta_object_name": "IRIDIUM 33 DEB",
        "meta_object_id": "1997-051BA",
        "meta_epoch": "2025-12-06T21:17:41.557056",
        "meta_mean_motion": 14.5641101,
        "meta_eccentricity": 0.00613255,
        "meta_inclination": 86.3871,
        "meta_ra_of_asc_node": 109.2851,
        "meta_arg_of_pericenter": 193.6863,
        "meta_mean_anomaly": 294.0884,
        "meta_ephemeris_type": 0,
        "meta_classification_type": "U",
        "meta_norad_cat_id": 33881,
        "meta_element_set_no": 999,
        "meta_rev_at_epoch": 87415,
        "meta_bstar": 0.0034816838,
        "meta_mean_motion_dot": 0.00015893,
        "meta_mean_motion_ddot": 0,
        "tle_line1": "1 33881U 97051BA  25340.88728654  .00015893  00000+0  34817-2 0  9997",
        "tle_line2": "2 33881  86.3871 109.2851 0061325 193.6863 294.0884 14.56411010874150"
      },
      "geometry": {
        "type": "Point",
        "coordinates": [
          104.73108567142941,
          -49.486837302609025
        ]
      }
    },
    {
      "type": "Feature",
      "properties": {
        "norad_id": 33884,
        "name": "IRIDIUM 33 DEB",
        "group": "iridium-33-debris",
        "lat": -51.77781437182625,
        "lon": -163.24115662463083,
        "alt_km": 647.5612301849933,
        "timestamp": "2025-12-07T14:37:05.588641+00:00",
        "meta_object_name": "IRIDIUM 33 DEB",
        "meta_object_id": "1997-051BD",
        "meta_epoch": "2025-12-06T20:30:21.095712",
        "meta_mean_motion": 14.77262355,
        "meta_eccentricity": 0.00103084,
        "meta_inclination": 86.3691,
        "meta_ra_of_asc_node": 12.4747,
        "meta_arg_of_pericenter": 345.6564,
        "meta_mean_anomaly": 195.3939,
        "meta_ephemeris_type": 0,
        "meta_classification_type": "U",
        "meta_norad_cat_id": 33884,
        "meta_element_set_no": 999,
        "meta_rev_at_epoch": 88760,
        "meta_bstar": 0.0023937107,
        "meta_mean_motion_dot": 0.00017032,
        "meta_mean_motion_ddot": 0,
        "tle_line1": "1 33884U 97051BD  25340.85441083  .00017032  00000+0  23937-2 0  9993",
        "tle_line2": "2 33884  86.3691  12.4747 0010308 345.6564 195.3939 14.77262355887601"
      },
      "geometry": {
        "type": "Point",
        "coordinates": [
          -163.24115662463083,
          -51.77781437182625
        ]
      }
    }
  ]
}